DONGPO 02               
1 53452U 22098J   26177.95862648  .00124938  00000+0  77546-3 0  9999
2 53452  97.5523 310.0089 0003384 248.9735 111.1168 15.76643510216331
DONGPO 01               
1 53453U 22098K   26178.28116340  .00112662  00000+0  77494-3 0  9991
2 53453  97.5593 310.8591 0002378 223.2048 136.9029 15.74311352216346
STARLINK-4400           
1 53468U 22099D   26178.28007144  .00000967  00000+0  70918-4 0  9998
2 53468  97.3060 296.8009 0001577 137.3292 222.8059 15.05656438212460
STARLINK-4621           
1 53676U 22105AE  26178.28284467 -.00001273  00000+0 -84284-4 0  9996
2 53676  97.3091  56.8160 0001858  75.3746 284.7688 15.05659698209725
SHERPA-LTC2             
1 53754U 22107BG  26178.25049364  .00003863  00000+0  20489-3 0  9998
2 53754  53.2340 177.7267 0393055 254.3007 101.4288 14.69793831204029
CENTISPACE-1 S3         
1 53757U 22108A   26178.26240177  .00000462  00000+0  13100-3 0  9992
2 53757  53.5340  13.5972 0010006  21.7769 338.3630 14.61264409203003
CENTISPACE-1 S4         
1 53758U 22108B   26178.24198055  .00000596  00000+0  15573-3 0  9992
2 53758  53.5315  11.1518 0009166  10.6836 349.4332 14.61948167203038
BLUEWALKER-3            
1 53807U 22111AL  26177.86019810  .00006324  00000+0  17470-3 0  9992
2 53807  53.2302 348.5562 0005465 191.5277 168.5604 15.38390554211697
YUNHAI-1 03             
1 53877U 22115A   26178.24401177  .00000295  00000+0  12434-3 0  9993
2 53877  98.5534 176.2634 0005315  30.9176 329.2320 14.32724892196958
CENTISPACE-1 S5         
1 54020U 22126A   26178.26374548  .00000690  00000+0  17014-3 0  9997
2 54020  54.9973 172.6360 0014716  91.0910 269.1771 14.63027415198514
CENTISPACE-1 S6         
1 54021U 22126B   26178.26192802  .00000136  00000+0  63863-4 0  9998
2 54021  54.9975 174.5555 0016548  91.5295 268.7595 14.62296141198477
OTB-3-GAZELLE           
1 54023U 22127A   26178.25512381  .00000162  00000+0  61641-4 0  9999
2 54023  98.3947 169.8063 0013651 153.2813 206.9084 14.42678002195815
ASO-S                   
1 54029U 22129A   26178.31437765  .00000238  00000+0  69684-4 0  9995
2 54029  98.2747 183.2497 0015593  64.2230 296.0572 14.52066465196896
HJ-2E                   
1 54035U 22132A   26178.27569164  .00008311  00000+0  36025-3 0  9992
2 54035  97.3795 182.4706 0019193 339.2488  20.7967 15.22459697205959
COSMOS 2561             
1 54109U 22137A   26178.22147755  .00013905  00000+0  23261-3 0  9995
2 54109  96.9180 236.8474 0009292 359.9141   0.2110 15.51946427207908
GONETS-M 23             
1 54150U 22139A   26178.24439169  .00000034  00000+0  17067-3 0  9994
2 54150  82.5078 342.0432 0021326 197.2187 162.8171 12.42891303166893
GONETS-M 24             
1 54151U 22139B   26178.21747198  .00000036  00000+0  18990-3 0  9994
2 54151  82.4994 341.1129 0016401 207.2003 152.8219 12.42891940166899
GONETS-M 25             
1 54152U 22139C   26178.28437126  .00000035  00000+0  17987-3 0  9993
2 54152  82.5060 341.7630 0020320 206.0390 153.9669 12.42890415166908
SKIF-D                  
1 54153U 22139D   26177.45038105 -.00000014  00000+0  00000+0 0  9998
2 54153  89.9498  96.6653 0007400 195.3772 164.6521  5.00426928 64570
MATS                    
1 54227U 22147A   26178.28536593  .00004321  00000+0  30501-3 0  9992
2 54227  97.6819 179.8379 0013082 159.2771 200.8989 15.05413863199283
JILIN-1 GAOFEN 03D54    
1 54254U 22155D   26178.07776063  .00693165  25176-3  84789-3 0  9998
2 54254  97.6180 332.5933 0009065 260.8274  99.1982 16.07990796201881
EOS-6 (OCEANSAT-3)      
1 54361U 22158A   26178.25842517  .00000261  00000+0  83665-4 0  9995
2 54361  98.3546 276.3192 0000694  45.8630 314.2620 14.47005988189294
DONGPO 09               
1 54685U 22167D   26178.30937747  .00012817  00000+0  36139-3 0  9993
2 54685  97.6898 349.7697 0003587  93.3756 266.7898 15.36555638197008
DONGPO 08               
1 54686U 22167E   26178.30766230  .00011219  00000+0  34472-3 0  9994
2 54686  97.6862 346.8978 0009231 128.3155 231.8918 15.33845048196878
2022-167F               
1 54687U 22167F   26178.30983685  .00347076  51606-4  76424-3 0  9999
2 54687  97.6048   7.5233 0002919 240.4308 119.6678 15.98073485198442
DONGPO 10               
1 54689U 22167H   26178.30896066  .00011776  00000+0  35280-3 0  9994
2 54689  97.6943 348.8747 0006179  81.9302 278.2641 15.34656671196919
JILIN-1 GAOFEN 03D48    
1 54695U 22167P   26178.30158988  .00012366  00000+0  36124-3 0  9999
2 54695  97.6878 348.2484 0007523  85.2325 274.9777 15.35432932196940
STAR VIBE               
1 55009U 23001A   26178.28882898  .00015361  00000+0  35128-3 0  9999
2 55009  97.3173 242.7945 0006976  84.6606 275.5438 15.42888511193787
BRO-8                   
1 55011U 23001C   26178.25275574  .00033327  00000+0  60129-3 0  9997
2 55011  97.3213 243.5851 0006560  96.3878 263.8120 15.49664552193760
CONNECTA T1.2           
1 55012U 23001D   26178.17053249  .00046139  00000+0  77886-3 0  9995
2 55012  97.3264 249.0426 0005849  72.7775 287.4117 15.51487494194095
