OBJECT_NAME,OBJECT_ID,EPOCH,MEAN_MOTION,ECCENTRICITY,INCLINATION,RA_OF_ASC_NODE,ARG_OF_PERICENTER,MEAN_ANOMALY,EPHEMERIS_TYPE,CLASSIFICATION_TYPE,NORAD_CAT_ID,ELEMENT_SET_NO,REV_AT_EPOCH,BSTAR,MEAN_MOTION_DOT,MEAN_MOTION_DDOT
DONGPO 02,2022-098J,2026-06-26T23:00:25.327872,15.76643510,.0003384,97.5523,310.0089,248.9735,111.1168,0,U,53452,999,21633,.77546E-3,.124938E-2,0
DONGPO 01,2022-098K,2026-06-27T06:44:52.517760,15.74311352,.00023782,97.5593,310.8591,223.2048,136.9029,0,U,53453,999,21634,.77494473E-3,.112662E-2,0
STARLINK-4400,2022-099D,2026-06-27T06:43:18.172416,15.05656438,.00015775,97.3060,296.8009,137.3292,222.8059,0,U,53468,999,21246,.70917523E-4,.967E-5,0
STARLINK-4621,2022-105AE,2026-06-27T06:47:17.779488,15.05659698,.00018587,97.3091,56.8160,75.3746,284.7688,0,U,53676,999,20972,-.84283893E-4,-.1273E-4,0
SHERPA-LTC2,2022-107BG,2026-06-27T06:00:42.650496,14.69793831,.0393055,53.2340,177.7267,254.3007,101.4288,0,U,53754,999,20402,.20488929E-3,.3863E-4,0
CENTISPACE-1 S3,2022-108A,2026-06-27T06:17:51.512928,14.61264409,.0010006,53.5340,13.5972,21.7769,338.3630,0,U,53757,999,20300,.13099772E-3,.462E-5,0
CENTISPACE-1 S4,2022-108B,2026-06-27T05:48:27.119520,14.61948167,.00091665,53.5315,11.1518,10.6836,349.4332,0,U,53758,999,20303,.15572543E-3,.596E-5,0
BLUEWALKER-3,2022-111AL,2026-06-26T20:38:41.115840,15.38390554,.0005465,53.2302,348.5562,191.5277,168.5604,0,U,53807,999,21169,.17470058E-3,.6324E-4,0
YUNHAI-1 03,2022-115A,2026-06-27T05:51:22.616928,14.32724892,.00053153,98.5534,176.2634,30.9176,329.2320,0,U,53877,999,19695,.12434383E-3,.295E-5,0
CENTISPACE-1 S5,2022-126A,2026-06-27T06:19:47.609472,14.63027415,.00147165,54.9973,172.6360,91.0910,269.1771,0,U,54020,999,19851,.17013838E-3,.69E-5,0
CENTISPACE-1 S6,2022-126B,2026-06-27T06:17:10.580928,14.62296141,.00165487,54.9975,174.5555,91.5295,268.7595,0,U,54021,999,19847,.63863065E-4,.136E-5,0
OTB-3-GAZELLE,2022-127A,2026-06-27T06:07:22.697184,14.42678002,.00136516,98.3947,169.8063,153.2813,206.9084,0,U,54023,999,19581,.61641486E-4,.162E-5,0
ASO-S,2022-129A,2026-06-27T07:32:42.228960,14.52066465,.0015593,98.2747,183.2497,64.2230,296.0572,0,U,54029,999,19689,.69684464E-4,.238E-5,0
HJ-2E,2022-132A,2026-06-27T06:36:59.757696,15.22459697,.00191931,97.3795,182.4706,339.2488,20.7967,0,U,54035,999,20595,.36025216E-3,.8311E-4,0
COSMOS 2561,2022-137A,2026-06-27T05:18:55.660320,15.51946427,.0009292,96.9180,236.8474,359.9141,0.2110,0,U,54109,999,20790,.23261E-3,.13905E-3,0
GONETS-M 23,2022-139A,2026-06-27T05:51:55.442016,12.42891303,.00213269,82.5078,342.0432,197.2187,162.8171,0,U,54150,999,16689,.17067404E-3,.34E-6,0
GONETS-M 24,2022-139B,2026-06-27T05:13:09.579072,12.42891940,.00164019,82.4994,341.1129,207.2003,152.8219,0,U,54151,999,16689,.18990184E-3,.36E-6,0
GONETS-M 25,2022-139C,2026-06-27T06:49:29.676864,12.42890415,.00203208,82.5060,341.7630,206.0390,153.9669,0,U,54152,999,16690,.17986802E-3,.35E-6,0
SKIF-D,2022-139D,2026-06-26T10:48:32.922720,5.00426928,.00074,89.9498,96.6653,195.3772,164.6521,0,U,54153,999,6457,0,-.14E-6,0
MATS,2022-147A,2026-06-27T06:50:55.616352,15.05413863,.00130825,97.6819,179.8379,159.2771,200.8989,0,U,54227,999,19928,.30500758E-3,.4321E-4,0
JILIN-1 GAOFEN 03D54,2022-155D,2026-06-27T01:51:58.518432,16.07990796,.00090656,97.6180,332.5933,260.8274,99.1982,0,U,54254,999,20188,.84788989E-3,.693165E-2,.25176246E-3
EOS-6 (OCEANSAT-3),2022-158A,2026-06-27T06:12:07.934688,14.47005988,.00006942,98.3546,276.3192,45.8630,314.2620,0,U,54361,999,18929,.83665297E-4,.261E-5,0
DONGPO 09,2022-167D,2026-06-27T07:25:30.213408,15.36555638,.00035877,97.6898,349.7697,93.3756,266.7898,0,U,54685,999,19700,.36138894E-3,.12817E-3,0
DONGPO 08,2022-167E,2026-06-27T07:23:02.022720,15.33845048,.00092316,97.6862,346.8978,128.3155,231.8918,0,U,54686,999,19687,.3447222E-3,.11219E-3,0
2022-167F,2022-167F,2026-06-27T07:26:09.903840,15.98073485,.00029193,97.6048,7.5233,240.4308,119.6678,0,U,54687,999,19844,.76424125E-3,.347076E-2,.51605955E-4
DONGPO 10,2022-167H,2026-06-27T07:24:54.201024,15.34656671,.00061796,97.6943,348.8747,81.9302,278.2641,0,U,54689,999,19691,.35279723E-3,.11776E-3,0
JILIN-1 GAOFEN 03D48,2022-167P,2026-06-27T07:14:17.365632,15.35432932,.00075234,97.6878,348.2484,85.2325,274.9777,0,U,54695,999,19694,.36123896E-3,.12366E-3,0
STAR VIBE,2023-001A,2026-06-27T06:55:54.823872,15.42888511,.00069765,97.3173,242.7945,84.6606,275.5438,0,U,55009,999,19378,.35128079E-3,.15361E-3,0
BRO-8,2023-001C,2026-06-27T06:03:58.095936,15.49664552,.000656,97.3213,243.5851,96.3878,263.8120,0,U,55011,999,19376,.60129378E-3,.33327E-3,0
CONNECTA T1.2,2023-001D,2026-06-27T04:05:34.007136,15.51487494,.00058491,97.3264,249.0426,72.7775,287.4117,0,U,55012,999,19409,.77886466E-3,.46139E-3,0
